{
  "type": "FeatureCollection",
  "features": [
    {
      "type": "Feature",
      "properties": {
        "norad_id": 30516,
        "name": "FENGYUN 1C DEB",
        "group": "fengyun-1c-debris",
        "lat": -4.004549317092762,
        "lon": 99.88140521140774,
        "alt_km": 757.1817807154794,
        "timestamp": "2025-12-20T22:39:10.903148+00:00",
        "meta_object_name": "FENGYUN 1C DEB",
        "meta_object_id": "1999-025AJE",
        "meta_epoch": "2025-12-20T01:50:04.053984",
        "meta_mean_motion": 14.4143,
        "meta_eccentricity": 0.00098135,
        "meta_inclination": 98.8575,
        "meta_ra_of_asc_node": 98.3571,
        "meta_arg_of_pericenter": 268.7199,
        "meta_mean_anomaly": 268.5214,
        "meta_ephemeris_type": 0,
        "meta_classification_type": "U",
        "meta_norad_cat_id": 30516,
        "meta_element_set_no": 999,
        "meta_rev_at_epoch": 97820,
        "meta_bstar": 0.0013868174,
        "meta_mean_motion_dot": 4.454e-05,
        "meta_mean_motion_ddot": 0,
        "tle_line1": "1 30516U 99025AJE 25354.07643581  .00004454  00000+0  13868-2 0  9997",
        "tle_line2": "2 30516  98.8575  98.3571 0009813 268.7199 268.5214 14.41430000978206"
      },
      "geometry": {
        "type": "Point",
        "coordinates": [
          99.88140521140774,
          -4.004549317092762
        ]
      }
    },
    {
      "type": "Feature",
      "properties": {
        "norad_id": 30520,
        "name": "FENGYUN 1C DEB",
        "group": "fengyun-1c-debris",
        "lat": 70.00633036218926,
        "lon": 13.879332194252063,
        "alt_km": 476.57110566753363,
        "timestamp": "2025-12-20T22:39:10.903157+00:00",
        "meta_object_name": "FENGYUN 1C DEB",
        "meta_object_id": "1999-025AJJ",
        "meta_epoch": "2025-12-20T11:04:56.854560",
        "meta_mean_motion": 15.14342936,
        "meta_eccentricity": 0.0070124,
        "meta_inclination": 98.7177,
        "meta_ra_of_asc_node": 168.3838,
        "meta_arg_of_pericenter": 74.2451,
        "meta_mean_anomaly": 286.6496,
        "meta_ephemeris_type": 0,
        "meta_classification_type": "U",
        "meta_norad_cat_id": 30520,
        "meta_element_set_no": 999,
        "meta_rev_at_epoch": 1158,
        "meta_bstar": 0.00062179149,
        "meta_mean_motion_dot": 0.00012042,
        "meta_mean_motion_ddot": 0,
        "tle_line1": "1 30520U 99025AJJ 25354.46176915  .00012042  00000+0  62179-3 0  9999",
        "tle_line2": "2 30520  98.7177 168.3838 0070124  74.2451 286.6496 15.14342936 11589"
      },
      "geometry": {
        "type": "Point",
        "coordinates": [
          13.879332194252063,
          70.00633036218926
        ]
      }
    },
    {
      "type": "Feature",
      "properties": {
        "norad_id": 30521,
        "name": "FENGYUN 1C DEB",
        "group": "fengyun-1c-debris",
        "lat": 60.59017588608301,
        "lon": 114.53583087356256,
        "alt_km": 780.8062188190033,
        "timestamp": "2025-12-20T22:39:10.903166+00:00",
        "meta_object_name": "FENGYUN 1C DEB",
        "meta_object_id": "1999-025AJK",
        "meta_epoch": "2025-12-20T02:36:08.606880",
        "meta_mean_motion": 14.5830651,
        "meta_eccentricity": 0.01357642,
        "meta_inclination": 98.9886,
        "meta_ra_of_asc_node": 129.9408,
        "meta_arg_of_pericenter": 221.236,
        "meta_mean_anomaly": 137.8521,
        "meta_ephemeris_type": 0,
        "meta_classification_type": "U",
        "meta_norad_cat_id": 30521,
        "meta_element_set_no": 999,
        "meta_rev_at_epoch": 99689,
        "meta_bstar": 0.0005745023,
        "meta_mean_motion_dot": 2.956e-05,
        "meta_mean_motion_ddot": 0,
        "tle_line1": "1 30521U 99025AJK 25354.10843295  .00002956  00000+0  57450-3 0  9992",
        "tle_line2": "2 30521  98.9886 129.9408 0135764 221.2360 137.8521 14.58306510996897"
      },
      "geometry": {
        "type": "Point",
        "coordinates": [
          114.53583087356256,
          60.59017588608301
        ]
      }
    },
    {
      "type": "Feature",
      "properties": {
        "norad_id": 30523,
        "name": "FENGYUN 1C DEB",
        "group": "fengyun-1c-debris",
        "lat": 20.41633710074928,
        "lon": 156.21499331970253,
        "alt_km": 748.4853052344342,
        "timestamp": "2025-12-20T22:39:10.903175+00:00",
        "meta_object_name": "FENGYUN 1C DEB",
        "meta_object_id": "1999-025AJM",
        "meta_epoch": "2025-12-20T05:10:29.457408",
        "meta_mean_motion": 14.27939184,
        "meta_eccentricity": 0.02441876,
        "meta_inclination": 98.4664,
        "meta_ra_of_asc_node": 332.3301,
        "meta_arg_of_pericenter": 86.6425,
        "meta_mean_anomaly": 288.3876,
        "meta_ephemeris_type": 0,
        "meta_classification_type": "U",
        "meta_norad_cat_id": 30523,
        "meta_element_set_no": 999,
        "meta_rev_at_epoch": 98207,
        "meta_bstar": 0.00014101405,
        "meta_mean_motion_dot": 4.34e-06,
        "meta_mean_motion_ddot": 0,
        "tle_line1": "1 30523U 99025AJM 25354.21561872  .00000434  00000+0  14101-3 0  9999",
        "tle_line2": "2 30523  98.4664 332.3301 0244187  86.6425 288.3876 14.27939184982070"
      },
      "geometry": {
        "type": "Point",
        "coordinates": [
          156.21499331970253,
          20.41633710074928
        ]
      }
    },
    {
      "type": "Feature",
      "properties": {
        "norad_id": 30524,
        "name": "FENGYUN 1C DEB",
        "group": "fengyun-1c-debris",
        "lat": 36.31193400595257,
        "lon": -5.986957435626542,
        "alt_km": 902.0252065129271,
        "timestamp": "2025-12-20T22:39:10.903184+00:00",
        "meta_object_name": "FENGYUN 1C DEB",
        "meta_object_id": "1999-025AJN",
        "meta_epoch": "2025-12-16T11:00:51.821568",
        "meta_mean_motion": 13.92254836,
        "meta_eccentricity": 0.02078556,
        "meta_inclination": 99.3067,
        "meta_ra_of_asc_node": 162.5862,
        "meta_arg_of_pericenter": 240.3218,
        "meta_mean_anomaly": 117.7105,
        "meta_ephemeris_type": 0,
        "meta_classification_type": "U",
        "meta_norad_cat_id": 30524,
        "meta_element_set_no": 999,
        "meta_rev_at_epoch": 93937,
        "meta_bstar": 0.0039327007,
        "meta_mean_motion_dot": 5.976e-05,
        "meta_mean_motion_ddot": 0,
        "tle_line1": "1 30524U 99025AJN 25350.45893312  .00005976  00000+0  39327-2 0  9991",
        "tle_line2": "2 30524  99.3067 162.5862 0207855 240.3218 117.7105 13.92254836939373"
      },
      "geometry": {
        "type": "Point",
        "coordinates": [
          -5.986957435626542,
          36.31193400595257
        ]
      }
    },
    {
      "type": "Feature",
      "properties": {
        "norad_id": 30525,
        "name": "FENGYUN 1C DEB",
        "group": "fengyun-1c-debris",
        "lat": 67.02454434118113,
        "lon": 79.96523463891928,
        "alt_km": 1251.2904452251314,
        "timestamp": "2025-12-20T22:39:10.903192+00:00",
        "meta_object_name": "FENGYUN 1C DEB",
        "meta_object_id": "1999-025AJP",
        "meta_epoch": "2025-12-18T15:18:01.895616",
        "meta_mean_motion": 13.58621536,
        "meta_eccentricity": 0.02931758,
        "meta_inclination": 98.6028,
        "meta_ra_of_asc_node": 237.0204,
        "meta_arg_of_pericenter": 294.1589,
        "meta_mean_anomaly": 62.9159,
        "meta_ephemeris_type": 0,
        "meta_classification_type": "U",
        "meta_norad_cat_id": 30525,
        "meta_element_set_no": 999,
        "meta_rev_at_epoch": 93197,
        "meta_bstar": 0.0010827558,
        "meta_mean_motion_dot": 1.008e-05,
        "meta_mean_motion_ddot": 0,
        "tle_line1": "1 30525U 99025AJP 25352.63752194  .00001008  00000+0  10828-2 0  9993",
        "tle_line2": "2 30525  98.6028 237.0204 0293175 294.1589  62.9159 13.58621536931974"
      },
      "geometry": {
        "type": "Point",
        "coordinates": [
          79.96523463891928,
          67.02454434118113
        ]
      }
    },
    {
      "type": "Feature",
      "properties": {
        "norad_id": 30526,
        "name": "FENGYUN 1C DEB",
        "group": "fengyun-1c-debris",
        "lat": -20.86497621296133,
        "lon": -106.7986406922412,
        "alt_km": 907.7949746415006,
        "timestamp": "2025-12-20T22:39:10.903202+00:00",
        "meta_object_name": "FENGYUN 1C DEB",
        "meta_object_id": "1999-025AJQ",
        "meta_epoch": "2025-12-18T16:16:05.246400",
        "meta_mean_motion": 13.4991885,
        "meta_eccentricity": 0.03066867,
        "meta_inclination": 99.5472,
        "meta_ra_of_asc_node": 74.7045,
        "meta_arg_of_pericenter": 249.9099,
        "meta_mean_anomaly": 106.879,
        "meta_ephemeris_type": 0,
        "meta_classification_type": "U",
        "meta_norad_cat_id": 30526,
        "meta_element_set_no": 999,
        "meta_rev_at_epoch": 92738,
        "meta_bstar": 0.0011342218,
        "meta_mean_motion_dot": 9.2e-06,
        "meta_mean_motion_ddot": 0,
        "tle_line1": "1 30526U 99025AJQ 25352.67783850  .00000920  00000+0  11342-2 0  9995",
        "tle_line2": "2 30526  99.5472  74.7045 0306686 249.9099 106.8790 13.49918850927380"
      },
      "geometry": {
        "type": "Point",
        "coordinates": [
          -106.7986406922412,
          -20.86497621296133
        ]
      }
    }
  ]
}